IRIDIUM 144             
1 43249U 18030A   25261.90082599  .00000119  00000+0  35342-4 0  9993
2 43249  86.3961  43.7927 0002187  90.9566 269.1881 14.34217801391258
IRIDIUM 149             
1 43250U 18030B   25261.97693721  .00000101  00000+0  29043-4 0  9999
2 43250  86.3960  43.7307 0002168  88.9911 271.1533 14.34217860391286
IRIDIUM 157             
1 43251U 18030C   25261.92619615  .00000177  00000+0  56288-4 0  9999
2 43251  86.3963  43.7993 0001897  91.2445 268.8969 14.34218000391258
IRIDIUM 140             
1 43252U 18030D   25262.15453063  .00000238  00000+0  77918-4 0  9990
2 43252  86.3962  43.7170 0002276  90.8569 269.2888 14.34217707391347
IRIDIUM 145             
1 43253U 18030E   25261.93254019 -.00000085  00000+0 -37315-4 0  9995
2 43253  86.3961  43.7832 0002307  84.9996 275.1464 14.34216957391246
IRIDIUM 146             
1 43254U 18030F   25261.91351225  .00000018  00000+0 -71087-6 0  9992
2 43254  86.3962  43.8038 0002412  86.6436 273.5036 14.34217705391252
IRIDIUM 148             
1 43255U 18030G   25261.88179782 -.00000114  00000+0 -47951-4 0  9994
2 43255  86.3962  43.8565 0001920  88.4513 271.6903 14.34216697391281
IRIDIUM 142             
1 43256U 18030H   25261.91985440  .00000036  00000+0  58329-5 0  9998
2 43256  86.3958  43.7388 0002454  82.3974 277.7501 14.34217937391252
